{
  "norad_id": 61642,
  "name": "STARLINK-32264",
  "history": [
    {
      "epoch": "2026-03-28T20:00:01.999872Z",
      "apogee_km": 462.8373651695001,
      "perigee_km": 450.44358977849697,
      "latitude_deg": -39.36617859544519,
      "longitude_deg": 163.22283127392407,
      "height_km": 465.674412844963,
      "semi_major_axis_km": 6834.777477473998,
      "eccentricity": 0.00090667,
      "inclination_deg": 42.9986,
      "raan_deg": 48.4384,
      "arg_perigee_deg": 184.1695,
      "mean_anomaly_deg": 63.6622,
      "mean_motion_rev_day": 15.36442078
    },
    {
      "epoch": "2026-03-29T04:00:01.999584Z",
      "apogee_km": 462.5607641132474,
      "perigee_km": 449.92263102570087,
      "latitude_deg": -38.73587555046678,
      "longitude_deg": 101.13060878539598,
      "height_km": 469.75372473694864,
      "semi_major_axis_km": 6834.378697569474,
      "eccentricity": 0.0009246,
      "inclination_deg": 42.9984,
      "raan_deg": 46.5329,
      "arg_perigee_deg": 185.482,
      "mean_anomaly_deg": 108.3372,
      "mean_motion_rev_day": 15.36576555
    },
    {
      "epoch": "2026-03-30T03:41:08.676096Z",
      "apogee_km": 461.72627245317017,
      "perigee_km": 448.5599083749603,
      "latitude_deg": -4.692427481152899e-05,
      "longitude_deg": 158.0430062226906,
      "height_km": 461.36006688219067,
      "semi_major_axis_km": 6833.280090414065,
      "eccentricity": 0.0009634,
      "inclination_deg": 42.9989,
      "raan_deg": 40.8786,
      "arg_perigee_deg": 191.897,
      "mean_anomaly_deg": 168.1658,
      "mean_motion_rev_day": 15.3694713
    },
    {
      "epoch": "2026-03-30T05:14:43.561536Z",
      "apogee_km": 461.7373150701678,
      "perigee_km": 448.45159981209326,
      "latitude_deg": 2.2793133073716196e-06,
      "longitude_deg": 134.2112485632618,
      "height_km": 461.36772508391886,
      "semi_major_axis_km": 6833.23145744113,
      "eccentricity": 0.00097214,
      "inclination_deg": 42.9988,
      "raan_deg": 40.5062,
      "arg_perigee_deg": 191.9846,
      "mean_anomaly_deg": 168.0779,
      "mean_motion_rev_day": 15.36963538
    },
    {
      "epoch": "2026-03-30T12:00:02.000160Z",
      "apogee_km": 461.55094735288367,
      "perigee_km": 447.8425063600407,
      "latitude_deg": 36.66819026820515,
      "longitude_deg": 158.43334987747681,
      "height_km": 454.6773798614776,
      "semi_major_axis_km": 6832.833726856462,
      "eccentricity": 0.00100313,
      "inclination_deg": 42.9988,
      "raan_deg": 38.8933,
      "arg_perigee_deg": 194.0821,
      "mean_anomaly_deg": 285.2452,
      "mean_motion_rev_day": 15.37097737
    },
    {
      "epoch": "2026-03-30T22:00:00.999936Z",
      "apogee_km": 461.26645769184324,
      "perigee_km": 447.2301419795667,
      "latitude_deg": -43.119667870643504,
      "longitude_deg": 145.2613368594954,
      "height_km": 465.34105802973465,
      "semi_major_axis_km": 6832.385299835704,
      "eccentricity": 0.00102719,
      "inclination_deg": 42.9986,
      "raan_deg": 36.5063,
      "arg_perigee_deg": 196.3374,
      "mean_anomaly_deg": 71.3963,
      "mean_motion_rev_day": 15.37249065
    },
    {
      "epoch": "2026-03-31T20:00:01.999008Z",
      "apogee_km": 460.85191521115667,
      "perigee_km": 445.9318561248574,
      "latitude_deg": -33.01849547623378,
      "longitude_deg": -141.83597682706218,
      "height_km": 464.55072896705076,
      "semi_major_axis_km": 6831.528885668006,
      "eccentricity": 0.001092,
      "inclination_deg": 42.9989,
      "raan_deg": 31.2506,
      "arg_perigee_deg": 202.0294,
      "mean_anomaly_deg": 105.1746,
      "mean_motion_rev_day": 15.37538143
    },
    {
      "epoch": "2026-04-01T20:00:01.999008Z",
      "apogee_km": 460.18270880916043,
      "perigee_km": 444.589990107017,
      "latitude_deg": 43.155153605062125,
      "longitude_deg": -15.526991350260403,
      "height_km": 459.20266462466805,
      "semi_major_axis_km": 6830.523349458088,
      "eccentricity": 0.0011414,
      "inclination_deg": 42.9994,
      "raan_deg": 25.5154,
      "arg_perigee_deg": 207.552,
      "mean_anomaly_deg": 241.9472,
      "mean_motion_rev_day": 15.37877672
    },
    {
      "epoch": "2026-04-02T20:00:01.999008Z",
      "apogee_km": 458.9264873446582,
      "perigee_km": 442.5358379806348,
      "latitude_deg": -33.25817509824247,
      "longitude_deg": 112.97121111267796,
      "height_km": 452.32413388203145,
      "semi_major_axis_km": 6828.868162662647,
      "eccentricity": 0.0012001,
      "inclination_deg": 42.9994,
      "raan_deg": 19.7764,
      "arg_perigee_deg": 213.1583,
      "mean_anomaly_deg": 19.9578,
      "mean_motion_rev_day": 15.38436834
    },
    {
      "epoch": "2026-04-02T22:00:01.999584Z",
      "apogee_km": 459.0383470580273,
      "perigee_km": 442.6494757687269,
      "latitude_deg": -16.687986537577977,
      "longitude_deg": -160.61105791097245,
      "height_km": 458.4171081911205,
      "semi_major_axis_km": 6828.980911413377,
      "eccentricity": 0.00119995,
      "inclination_deg": 43.0009,
      "raan_deg": 19.2999,
      "arg_perigee_deg": 214.6236,
      "mean_anomaly_deg": 120.5798,
      "mean_motion_rev_day": 15.38398734
    },
    {
      "epoch": "2026-04-03T20:00:01.999008Z",
      "apogee_km": 458.1859593860836,
      "perigee_km": 441.201048224817,
      "latitude_deg": 12.625282896512354,
      "longitude_deg": -104.31567087776449,
      "height_km": 456.6255328987221,
      "semi_major_axis_km": 6827.8305038054505,
      "eccentricity": 0.0012438,
      "inclination_deg": 42.9996,
      "raan_deg": 14.0347,
      "arg_perigee_deg": 219.7672,
      "mean_anomaly_deg": 158.8453,
      "mean_motion_rev_day": 15.38787553
    },
    {
      "epoch": "2026-04-04T20:00:01.999008Z",
      "apogee_km": 457.17278746583816,
      "perigee_km": 440.07721006852444,
      "latitude_deg": 9.810812426289255,
      "longitude_deg": 44.503650414455905,
      "height_km": 443.4956453898742,
      "semi_major_axis_km": 6826.761998767181,
      "eccentricity": 0.0012521,
      "inclination_deg": 42.9994,
      "raan_deg": 8.2865,
      "arg_perigee_deg": 226.4625,
      "mean_anomaly_deg": 299.1971,
      "mean_motion_rev_day": 15.39148837
    },
    {
      "epoch": "2026-04-05T14:00:03.000384Z",
      "apogee_km": 456.72556391544913,
      "perigee_km": 439.3874419895601,
      "latitude_deg": 4.52649846383689,
      "longitude_deg": -35.0814618637778,
      "height_km": 453.48273174505005,
      "semi_major_axis_km": 6826.193502952504,
      "eccentricity": 0.00126997,
      "inclination_deg": 42.9992,
      "raan_deg": 3.9748,
      "arg_perigee_deg": 231.6662,
      "mean_anomaly_deg": 134.9214,
      "mean_motion_rev_day": 15.39341115
    },
    {
      "epoch": "2026-04-05T20:00:03.000384Z",
      "apogee_km": 456.45770005433224,
      "perigee_km": 439.14984463197925,
      "latitude_deg": -29.658112055509683,
      "longitude_deg": -168.99905173333963,
      "height_km": 454.3282454735173,
      "semi_major_axis_km": 6825.940772343156,
      "eccentricity": 0.0012678,
      "inclination_deg": 42.9989,
      "raan_deg": 2.5389,
      "arg_perigee_deg": 232.7553,
      "mean_anomaly_deg": 80.9101,
      "mean_motion_rev_day": 15.39426607
    },
    {
      "epoch": "2026-04-06T06:00:02.000160Z",
      "apogee_km": 456.18767173714514,
      "perigee_km": 438.7827446435922,
      "latitude_deg": 41.243911928870865,
      "longitude_deg": -173.64830435722388,
      "height_km": 455.92378410599497,
      "semi_major_axis_km": 6825.622208190368,
      "eccentricity": 0.00127497,
      "inclination_deg": 42.9988,
      "raan_deg": 0.143,
      "arg_perigee_deg": 236.5804,
      "mean_anomaly_deg": 229.0095,
      "mean_motion_rev_day": 15.3953438
    },
    {
      "epoch": "2026-04-07T14:00:01.999872Z",
      "apogee_km": 455.8354713538374,
      "perigee_km": 437.7905764885909,
      "latitude_deg": -34.10674264711392,
      "longitude_deg": -99.63577681592788,
      "height_km": 452.222513949554,
      "semi_major_axis_km": 6824.950023921214,
      "eccentricity": 0.00132198,
      "inclination_deg": 42.9985,
      "raan_deg": 352.4706,
      "arg_perigee_deg": 242.9157,
      "mean_anomaly_deg": 62.0182,
      "mean_motion_rev_day": 15.39761827
    },
    {
      "epoch": "2026-04-07T20:00:00.999360Z",
      "apogee_km": 455.6498182427067,
      "perigee_km": 437.7632682845215,
      "latitude_deg": -40.6929121206788,
      "longitude_deg": 101.42950483668305,
      "height_km": 450.1726936308298,
      "semi_major_axis_km": 6824.843543263614,
      "eccentricity": 0.0013104,
      "inclination_deg": 42.9984,
      "raan_deg": 351.0345,
      "arg_perigee_deg": 244.3867,
      "mean_anomaly_deg": 7.9211,
      "mean_motion_rev_day": 15.39797862
    },
    {
      "epoch": "2026-04-08T01:08:10.014432Z",
      "apogee_km": 455.99344414825464,
      "perigee_km": 437.22798134233744,
      "latitude_deg": 5.1151354079749115e-05,
      "longitude_deg": 136.44373507309132,
      "height_km": 450.10927620389606,
      "semi_major_axis_km": 6824.747712745296,
      "eccentricity": 0.00137481,
      "inclination_deg": 43.0001,
      "raan_deg": 349.8009,
      "arg_perigee_deg": 246.623,
      "mean_anomaly_deg": 113.3181,
      "mean_motion_rev_day": 15.39830294
    },
    {
      "epoch": "2026-04-09T00:29:16.163808Z",
      "apogee_km": 455.6376414765,
      "perigee_km": 437.5484215387878,
      "latitude_deg": 4.619541339134767e-05,
      "longitude_deg": 139.61178381281835,
      "height_km": 449.17037347299356,
      "semi_major_axis_km": 6824.730031507644,
      "eccentricity": 0.00132527,
      "inclination_deg": 42.9986,
      "raan_deg": 344.2036,
      "arg_perigee_deg": 251.9551,
      "mean_anomaly_deg": 107.9862,
      "mean_motion_rev_day": 15.39836278
    }
  ]
}